{
  "type": "FeatureCollection",
  "features": [
    {
      "type": "Feature",
      "properties": {
        "norad_id": 46986,
        "name": "FENGYUN 1C DEB",
        "group": "fengyun-1c-debris",
        "lat": 78.72370507054086,
        "lon": -128.36576646178798,
        "alt_km": 776.253053236178,
        "timestamp": "2025-12-07T03:52:32.788086+00:00",
        "meta_object_name": "FENGYUN 1C DEB",
        "meta_object_id": "1999-025EZL",
        "meta_epoch": "2025-12-01T08:01:27.390720",
        "meta_mean_motion": 14.47112781,
        "meta_eccentricity": 0.01038428,
        "meta_inclination": 98.2357,
        "meta_ra_of_asc_node": 359.3803,
        "meta_arg_of_pericenter": 247.048,
        "meta_mean_anomaly": 111.973,
        "meta_ephemeris_type": 0,
        "meta_classification_type": "U",
        "meta_norad_cat_id": 46986,
        "meta_element_set_no": 999,
        "meta_rev_at_epoch": 63235,
        "meta_bstar": 0.00048896767,
        "meta_mean_motion_dot": 1.859e-05,
        "meta_mean_motion_ddot": 0,
        "tle_line1": "1 46986U 99025EZL 25335.33434480  .00001859  00000+0  48897-3 0  9996",
        "tle_line2": "2 46986  98.2357 359.3803 0103842 247.0480 111.9730 14.47112781632350"
      },
      "geometry": {
        "type": "Point",
        "coordinates": [
          -128.36576646178798,
          78.72370507054086
        ]
      }
    },
    {
      "type": "Feature",
      "properties": {
        "norad_id": 46989,
        "name": "FENGYUN 1C DEB",
        "group": "fengyun-1c-debris",
        "lat": 67.40090891229057,
        "lon": -13.345089023191841,
        "alt_km": 1039.399163985122,
        "timestamp": "2025-12-07T03:52:32.788096+00:00",
        "meta_object_name": "FENGYUN 1C DEB",
        "meta_object_id": "1999-025EZP",
        "meta_epoch": "2025-12-01T09:56:49.877952",
        "meta_mean_motion": 13.7915922,
        "meta_eccentricity": 0.02374727,
        "meta_inclination": 99.5096,
        "meta_ra_of_asc_node": 137.1371,
        "meta_arg_of_pericenter": 7.3744,
        "meta_mean_anomaly": 21.4435,
        "meta_ephemeris_type": 0,
        "meta_classification_type": "U",
        "meta_norad_cat_id": 46989,
        "meta_element_set_no": 999,
        "meta_rev_at_epoch": 70886,
        "meta_bstar": 0.0040160764,
        "meta_mean_motion_dot": 5.034e-05,
        "meta_mean_motion_ddot": 0,
        "tle_line1": "1 46989U 99025EZP 25335.41446618  .00005034  00000+0  40161-2 0  9998",
        "tle_line2": "2 46989  99.5096 137.1371 0237472   7.3744  21.4435 13.79159220708866"
      },
      "geometry": {
        "type": "Point",
        "coordinates": [
          -13.345089023191841,
          67.40090891229057
        ]
      }
    },
    {
      "type": "Feature",
      "properties": {
        "norad_id": 46990,
        "name": "FENGYUN 1C DEB",
        "group": "fengyun-1c-debris",
        "lat": 61.755583131647654,
        "lon": 169.99023409438726,
        "alt_km": 556.1837124045269,
        "timestamp": "2025-12-07T03:52:32.788107+00:00",
        "meta_object_name": "FENGYUN 1C DEB",
        "meta_object_id": "1999-025EZQ",
        "meta_epoch": "2025-12-06T08:10:02.409024",
        "meta_mean_motion": 14.23662061,
        "meta_eccentricity": 0.03583683,
        "meta_inclination": 98.2315,
        "meta_ra_of_asc_node": 184.8522,
        "meta_arg_of_pericenter": 79.2421,
        "meta_mean_anomaly": 98.3113,
        "meta_ephemeris_type": 0,
        "meta_classification_type": "U",
        "meta_norad_cat_id": 46990,
        "meta_element_set_no": 999,
        "meta_rev_at_epoch": 8438,
        "meta_bstar": 0.0037020871,
        "meta_mean_motion_dot": 0.00016467,
        "meta_mean_motion_ddot": 0,
        "tle_line1": "1 46990U 99025EZQ 25340.34030566  .00016467  00000+0  37021-2 0  9992",
        "tle_line2": "2 46990  98.2315 184.8522 0358368  79.2421  98.3113 14.23662061 84385"
      },
      "geometry": {
        "type": "Point",
        "coordinates": [
          169.99023409438726,
          61.755583131647654
        ]
      }
    },
    {
      "type": "Feature",
      "properties": {
        "norad_id": 46992,
        "name": "FENGYUN 1C DEB",
        "group": "fengyun-1c-debris",
        "lat": -50.71222542871135,
        "lon": 137.02839638311207,
        "alt_km": 868.4331102263995,
        "timestamp": "2025-12-07T03:52:32.788117+00:00",
        "meta_object_name": "FENGYUN 1C DEB",
        "meta_object_id": "1999-025EZS",
        "meta_epoch": "2025-11-30T16:28:49.931328",
        "meta_mean_motion": 14.00675889,
        "meta_eccentricity": 0.00717654,
        "meta_inclination": 98.8954,
        "meta_ra_of_asc_node": 321.762,
        "meta_arg_of_pericenter": 194.0114,
        "meta_mean_anomaly": 165.9062,
        "meta_ephemeris_type": 0,
        "meta_classification_type": "U",
        "meta_norad_cat_id": 46992,
        "meta_element_set_no": 999,
        "meta_rev_at_epoch": 60788,
        "meta_bstar": 0.00049604417,
        "meta_mean_motion_dot": 7.12e-06,
        "meta_mean_motion_ddot": 0,
        "tle_line1": "1 46992U 99025EZS 25334.68668902  .00000712  00000+0  49604-3 0  9992",
        "tle_line2": "2 46992  98.8954 321.7620 0071765 194.0114 165.9062 14.00675889607888"
      },
      "geometry": {
        "type": "Point",
        "coordinates": [
          137.02839638311207,
          -50.71222542871135
        ]
      }
    },
    {
      "type": "Feature",
      "properties": {
        "norad_id": 46993,
        "name": "FENGYUN 1C DEB",
        "group": "fengyun-1c-debris",
        "lat": -10.811135577853474,
        "lon": 101.80959772780754,
        "alt_km": 846.0534430565594,
        "timestamp": "2025-12-07T03:52:32.788128+00:00",
        "meta_object_name": "FENGYUN 1C DEB",
        "meta_object_id": "1999-025EZT",
        "meta_epoch": "2025-11-27T14:29:20.258016",
        "meta_mean_motion": 13.69128576,
        "meta_eccentricity": 0.02626499,
        "meta_inclination": 98.723,
        "meta_ra_of_asc_node": 91.4662,
        "meta_arg_of_pericenter": 339.6374,
        "meta_mean_anomaly": 83.9969,
        "meta_ephemeris_type": 0,
        "meta_classification_type": "U",
        "meta_norad_cat_id": 46993,
        "meta_element_set_no": 999,
        "meta_rev_at_epoch": 60050,
        "meta_bstar": 0.00042527912,
        "meta_mean_motion_dot": 4.29e-06,
        "meta_mean_motion_ddot": 0,
        "tle_line1": "1 46993U 99025EZT 25331.60370669  .00000429  00000+0  42528-3 0  9995",
        "tle_line2": "2 46993  98.7230  91.4662 0262649 339.6374  83.9969 13.69128576600507"
      },
      "geometry": {
        "type": "Point",
        "coordinates": [
          101.80959772780754,
          -10.811135577853474
        ]
      }
    },
    {
      "type": "Feature",
      "properties": {
        "norad_id": 46995,
        "name": "FENGYUN 1C DEB",
        "group": "fengyun-1c-debris",
        "lat": -7.220830035539313,
        "lon": 64.71851748982874,
        "alt_km": 1052.6974355105576,
        "timestamp": "2025-12-07T03:52:32.788138+00:00",
        "meta_object_name": "FENGYUN 1C DEB",
        "meta_object_id": "1999-025EZV",
        "meta_epoch": "2025-12-02T04:23:06.408384",
        "meta_mean_motion": 13.86224088,
        "meta_eccentricity": 0.01921313,
        "meta_inclination": 98.5974,
        "meta_ra_of_asc_node": 59.0441,
        "meta_arg_of_pericenter": 146.7857,
        "meta_mean_anomaly": 214.5535,
        "meta_ephemeris_type": 0,
        "meta_classification_type": "U",
        "meta_norad_cat_id": 46995,
        "meta_element_set_no": 999,
        "meta_rev_at_epoch": 60322,
        "meta_bstar": 0.0031893895,
        "meta_mean_motion_dot": 4.221e-05,
        "meta_mean_motion_ddot": 0,
        "tle_line1": "1 46995U 99025EZV 25336.18271306  .00004221  00000+0  31894-2 0  9990",
        "tle_line2": "2 46995  98.5974  59.0441 0192131 146.7857 214.5535 13.86224088603225"
      },
      "geometry": {
        "type": "Point",
        "coordinates": [
          64.71851748982874,
          -7.220830035539313
        ]
      }
    },
    {
      "type": "Feature",
      "properties": {
        "norad_id": 46997,
        "name": "FENGYUN 1C DEB",
        "group": "fengyun-1c-debris",
        "lat": -21.03596378775287,
        "lon": -161.70634540209178,
        "alt_km": 819.6021588167732,
        "timestamp": "2025-12-07T03:52:32.788149+00:00",
        "meta_object_name": "FENGYUN 1C DEB",
        "meta_object_id": "1999-025EZX",
        "meta_epoch": "2025-12-05T21:29:55.692672",
        "meta_mean_motion": 14.27942614,
        "meta_eccentricity": 0.00249135,
        "meta_inclination": 98.5588,
        "meta_ra_of_asc_node": 20.3738,
        "meta_arg_of_pericenter": 357.0536,
        "meta_mean_anomaly": 181.4476,
        "meta_ephemeris_type": 0,
        "meta_classification_type": "U",
        "meta_norad_cat_id": 46997,
        "meta_element_set_no": 999,
        "meta_rev_at_epoch": 62353,
        "meta_bstar": 0.001888595,
        "meta_mean_motion_dot": 4.655e-05,
        "meta_mean_motion_ddot": 0,
        "tle_line1": "1 46997U 99025EZX 25339.89578348  .00004655  00000+0  18886-2 0  9996",
        "tle_line2": "2 46997  98.5588  20.3738 0024913 357.0536 181.4476 14.27942614623531"
      },
      "geometry": {
        "type": "Point",
        "coordinates": [
          -161.70634540209178,
          -21.03596378775287
        ]
      }
    }
  ]
}